ONEWEB-0229             
1 48779U 21045N   26195.67056482  .00000106  00000+0  24635-3 0  9997
2 48779  87.8992 253.7164 0001986 101.4872 258.6481 13.15547257248025
ONEWEB-0228             
1 48780U 21045P   26195.70397262  .00000120  00000+0  28365-3 0  9997
2 48780  87.9003 253.7031 0002086 100.4348 259.7017 13.15549167247942
ONEWEB-0232             
1 48781U 21045Q   26195.67849274 -.00000086  00000+0 -26264-3 0  9998
2 48781  87.8992 253.7099 0002207  97.2678 262.8704 13.15547793248264
ONEWEB-0231             
1 48782U 21045R   26195.65630300 -.00000125  00000+0 -36579-3 0  9999
2 48782  87.8989 253.7251 0002218 103.8332 256.3046 13.15547616247950
ONEWEB-0234             
1 48783U 21045S   26195.69419703  .00000172  00000+0  42156-3 0  9994
2 48783  87.8994 253.6998 0002753  87.5315 272.6130 13.15547998248091
ONEWEB-0238             
1 48784U 21045T   26195.69445652  .00000079  00000+0  17592-3 0  9999
2 48784  87.9000 253.6960 0002406  91.7167 268.4239 13.15548455247997
ONEWEB-0240             
1 48785U 21045U   26195.71571684 -.00000048  00000+0 -16153-3 0  9998
2 48785  87.8998 253.7012 0002363 103.0142 257.1253 13.15548970248022
ONEWEB-0246             
1 48786U 21045V   26195.71017700 -.00000013  00000+0 -67907-4 0  9999
2 48786  87.8996 253.7060 0002008 101.2565 258.8791 13.15547729247899
ONEWEB-0210             
1 48787U 21045W   26195.68482584  .00000140  00000+0  33705-3 0  9999
2 48787  87.8994 253.7088 0001801 123.2215 236.9089 13.15547652247931
ONEWEB-0214             
1 48788U 21045X   26195.69352896  .00000160  00000+0  39042-3 0  9995
2 48788  87.8996 253.7039 0001715 101.0528 259.0796 13.15546990247907
ONEWEB-0221             
1 48789U 21045Y   26195.70067452  .00000146  00000+0  35384-3 0  9998
2 48789  87.8998 253.7104 0002132 103.9847 256.1520 13.15548154247998
ONEWEB-0213             
1 48790U 21045Z   26195.68958089  .00000181  00000+0  44585-3 0  9994
2 48790  87.8994 253.7161 0002079 107.9579 252.1779 13.15548355248058
ONEWEB-0212             
1 48791U 21045AA  26195.66659253 -.00000023  00000+0 -95279-4 0  9998
2 48791  87.8992 253.7151 0002120  97.9663 262.1708 13.15547144248042
ONEWEB-0227             
1 48792U 21045AB  26195.66581060  .00000018  00000+0  13925-4 0  9999
2 48792  87.8992 253.7153 0002140 100.4379 259.6992 13.15547579247992
ONEWEB-0226             
1 48793U 21045AC  26195.65947055 -.00000134  00000+0 -38882-3 0  9998
2 48793  87.8993 253.7212 0002016 105.1889 254.9465 13.15547924247964
ONEWEB-0224             
1 48794U 21045AD  26195.69909044  .00000080  00000+0  17729-3 0  9994
2 48794  87.8986 253.7455 0002956  98.9664 261.1801 13.15548643247894
